[
    {
        "Altitude(m)": 717571.638407902,
        "Argument of Periapsis(deg)": 0.0011390121186627068,
        "Eccentricity": 0.0,
        "Inclination(deg)": 45.0,
        "Latitude(deg)": -44.402787009135395,
        "Longitude(deg)": 138.0144218066236,
        "Mean Anomaly(deg)": -80.66487833525191,
        "RAAN(deg)": 314.9989248058542,
        "Satellite Name": "Constellation 1 1403",
        "Satellite Number": 1403,
        "Semi-Major Axis(m)": 7083131.272910544,
        "Time(s)": 19
    },
    {
        "Altitude(m)": 717567.6195927878,
        "Argument of Periapsis(deg)": 0.0011989601249081123,
        "Eccentricity": 0.0,
        "Inclination(deg)": 45.0,
        "Latitude(deg)": -44.39306197108138,
        "Longitude(deg)": 138.09374915606867,
        "Mean Anomaly(deg)": -80.60417719500202,
        "RAAN(deg)": 314.9988682166886,
        "Satellite Name": "Constellation 1 1403",
        "Satellite Number": 1403,
        "Semi-Major Axis(m)": 7083131.272910544,
        "Time(s)": 20
    },
    {
        "Altitude(m)": 717563.5755291687,
        "Argument of Periapsis(deg)": 0.001258908131153518,
        "Eccentricity": 0.0,
        "Inclination(deg)": 45.0,
        "Latitude(deg)": -44.38327600933998,
        "Longitude(deg)": 138.17304885066667,
        "Mean Anomaly(deg)": -80.54347605475219,
        "RAAN(deg)": 314.9988116275231,
        "Satellite Name": "Constellation 1 1403",
        "Satellite Number": 1403,
        "Semi-Major Axis(m)": 7083131.272910544,
        "Time(s)": 21
    },
    {
        "Altitude(m)": 717559.5062319414,
        "Argument of Periapsis(deg)": 0.0013188561373989236,
        "Eccentricity": 0.0,
        "Inclination(deg)": 45.0,
        "Latitude(deg)": -44.37342916448501,
        "Longitude(deg)": 138.25232056848148,
        "Mean Anomaly(deg)": -80.48277491450226,
        "RAAN(deg)": 314.99875503835744,
        "Satellite Name": "Constellation 1 1403",
        "Satellite Number": 1403,
        "Semi-Major Axis(m)": 7083131.272910544,
        "Time(s)": 22
    },
    {
        "Altitude(m)": 717555.4117160956,
        "Argument of Periapsis(deg)": 0.0013788041436443293,
        "Eccentricity": 0.0,
        "Inclination(deg)": 45.0,
        "Latitude(deg)": -44.36352147730898,
        "Longitude(deg)": 138.33156449231723,
        "Mean Anomaly(deg)": -80.42207377425231,
        "RAAN(deg)": 314.9986984491919,
        "Satellite Name": "Constellation 1 1403",
        "Satellite Number": 1403,
        "Semi-Major Axis(m)": 7083131.272910544,
        "Time(s)": 23
    },
    {
        "Altitude(m)": 717551.2919967123,
        "Argument of Periapsis(deg)": 0.001438752149889735,
        "Eccentricity": 0.0,
        "Inclination(deg)": 45.0,
        "Latitude(deg)": -44.353552988821086,
        "Longitude(deg)": 138.41078030113988,
        "Mean Anomaly(deg)": -80.36137263400248,
        "RAAN(deg)": 314.99864186002634,
        "Satellite Name": "Constellation 1 1403",
        "Satellite Number": 1403,
        "Semi-Major Axis(m)": 7083131.272910544,
        "Time(s)": 24
    },
    {
        "Altitude(m)": 717547.1470889603,
        "Argument of Periapsis(deg)": 0.0014987001561351404,
        "Eccentricity": 0.0,
        "Inclination(deg)": 45.0,
        "Latitude(deg)": -44.343523740237586,
        "Longitude(deg)": 138.48996784254683,
        "Mean Anomaly(deg)": -80.30067149375255,
        "RAAN(deg)": 314.99858527086076,
        "Satellite Name": "Constellation 1 1403",
        "Satellite Number": 1403,
        "Semi-Major Axis(m)": 7083131.272910544,
        "Time(s)": 25
    },
    {
        "Altitude(m)": 717542.977008114,
        "Argument of Periapsis(deg)": 0.001558648162380546,
        "Eccentricity": 0.0,
        "Inclination(deg)": 45.0,
        "Latitude(deg)": -44.33343377301924,
        "Longitude(deg)": 138.5691269643523,
        "Mean Anomaly(deg)": -80.2399703535026,
        "RAAN(deg)": 314.9985286816952,
        "Satellite Name": "Constellation 1 1403",
        "Satellite Number": 1403,
        "Semi-Major Axis(m)": 7083131.272910544,
        "Time(s)": 26
    },
    {
        "Altitude(m)": 717538.781769533,
        "Argument of Periapsis(deg)": 0.0016185961686259519,
        "Eccentricity": 0.0,
        "Inclination(deg)": 45.0,
        "Latitude(deg)": -44.32328312881337,
        "Longitude(deg)": 138.64825751506535,
        "Mean Anomaly(deg)": -80.17926921325267,
        "RAAN(deg)": 314.9984720925296,
        "Satellite Name": "Constellation 1 1403",
        "Satellite Number": 1403,
        "Semi-Major Axis(m)": 7083131.272910544,
        "Time(s)": 27
    },
    {
        "Altitude(m)": 717534.5613886634,
        "Argument of Periapsis(deg)": 0.0016785441748713573,
        "Eccentricity": 0.0,
        "Inclination(deg)": 45.0,
        "Latitude(deg)": -44.313071849490875,
        "Longitude(deg)": 138.72735934357607,
        "Mean Anomaly(deg)": -80.11856807300288,
        "RAAN(deg)": 314.9984155033641,
        "Satellite Name": "Constellation 1 1403",
        "Satellite Number": 1403,
        "Semi-Major Axis(m)": 7083131.272910544,
        "Time(s)": 28
    },
    {
        "Altitude(m)": 717530.3158810467,
        "Argument of Periapsis(deg)": 0.001738492181116763,
        "Eccentricity": 0.0,
        "Inclination(deg)": 45.0,
        "Latitude(deg)": -44.30279997713604,
        "Longitude(deg)": 138.80643229923666,
        "Mean Anomaly(deg)": -80.05786693275294,
        "RAAN(deg)": 314.9983589141985,
        "Satellite Name": "Constellation 1 1403",
        "Satellite Number": 1403,
        "Semi-Major Axis(m)": 7083131.272910544,
        "Time(s)": 29
    },
    {
        "Altitude(m)": 717526.0452623307,
        "Argument of Periapsis(deg)": 0.0017984401873621684,
        "Eccentricity": 0.0,
        "Inclination(deg)": 45.0,
        "Latitude(deg)": -44.29246755404565,
        "Longitude(deg)": 138.88547606376474,
        "Mean Anomaly(deg)": -79.99716579250305,
        "RAAN(deg)": 314.9983023250329,
        "Satellite Name": "Constellation 1 1403",
        "Satellite Number": 1403,
        "Semi-Major Axis(m)": 7083131.272910544,
        "Time(s)": 30
    },
    {
        "Altitude(m)": 717521.7495482333,
        "Argument of Periapsis(deg)": 0.0018583881936075745,
        "Eccentricity": 0.0,
        "Inclination(deg)": 45.0,
        "Latitude(deg)": -44.282074622728885,
        "Longitude(deg)": 138.96449082363395,
        "Mean Anomaly(deg)": -79.93646465225316,
        "RAAN(deg)": 314.99824573586733,
        "Satellite Name": "Constellation 1 1403",
        "Satellite Number": 1403,
        "Semi-Major Axis(m)": 7083131.272910544,
        "Time(s)": 31
    },
    {
        "Altitude(m)": 717517.4287545786,
        "Argument of Periapsis(deg)": 0.0019183361998529795,
        "Eccentricity": 0.0,
        "Inclination(deg)": 45.0,
        "Latitude(deg)": -44.27162122590542,
        "Longitude(deg)": 139.04347626149428,
        "Mean Anomaly(deg)": -79.87576351200323,
        "RAAN(deg)": 314.99818914670175,
        "Satellite Name": "Constellation 1 1403",
        "Satellite Number": 1403,
        "Semi-Major Axis(m)": 7083131.272910544,
        "Time(s)": 32
    },
    {
        "Altitude(m)": 717513.0828972827,
        "Argument of Periapsis(deg)": 0.0019782842060983856,
        "Eccentricity": 0.0,
        "Inclination(deg)": 45.0,
        "Latitude(deg)": -44.26110740650537,
        "Longitude(deg)": 139.12243222856065,
        "Mean Anomaly(deg)": -79.8150623717533,
        "RAAN(deg)": 314.9981325575362,
        "Satellite Name": "Constellation 1 1403",
        "Satellite Number": 1403,
        "Semi-Major Axis(m)": 7083131.272910544,
        "Time(s)": 33
    },
    {
        "Altitude(m)": 717508.7119923424,
        "Argument of Periapsis(deg)": 0.0020382322123437906,
        "Eccentricity": 0.0,
        "Inclination(deg)": 45.0,
        "Latitude(deg)": -44.25053320766828,
        "Longitude(deg)": 139.20135857651843,
        "Mean Anomaly(deg)": -79.75436123150347,
        "RAAN(deg)": 314.99807596837064,
        "Satellite Name": "Constellation 1 1403",
        "Satellite Number": 1403,
        "Semi-Major Axis(m)": 7083131.272910544,
        "Time(s)": 34
    },
    {
        "Altitude(m)": 717504.3160558623,
        "Argument of Periapsis(deg)": 0.002098180218589197,
        "Eccentricity": 0.0,
        "Inclination(deg)": 45.0,
        "Latitude(deg)": -44.239898672742406,
        "Longitude(deg)": 139.2802551575249,
        "Mean Anomaly(deg)": -79.69366009125352,
        "RAAN(deg)": 314.998019379205,
        "Satellite Name": "Constellation 1 1403",
        "Satellite Number": 1403,
        "Semi-Major Axis(m)": 7083131.272910544,
        "Time(s)": 35
    },
    {
        "Altitude(m)": 717499.8951040256,
        "Argument of Periapsis(deg)": 0.002158128224834602,
        "Eccentricity": 0.0,
        "Inclination(deg)": 45.0,
        "Latitude(deg)": -44.229203845283806,
        "Longitude(deg)": 139.3591218242112,
        "Mean Anomaly(deg)": -79.63295895100359,
        "RAAN(deg)": 314.9979627900395,
        "Satellite Name": "Constellation 1 1403",
        "Satellite Number": 1403,
        "Semi-Major Axis(m)": 7083131.272910544,
        "Time(s)": 36
    },
    {
        "Altitude(m)": 717495.449153117,
        "Argument of Periapsis(deg)": 0.002218076231080008,
        "Eccentricity": 0.0,
        "Inclination(deg)": 45.0,
        "Latitude(deg)": -44.21844876905546,
        "Longitude(deg)": 139.4379582615865,
        "Mean Anomaly(deg)": -79.57225781075374,
        "RAAN(deg)": 314.9979062008739,
        "Satellite Name": "Constellation 1 1403",
        "Satellite Number": 1403,
        "Semi-Major Axis(m)": 7083131.272910544,
        "Time(s)": 37
    }
]